[{"OBJECT_NAME":"ORBCOMM FM04","OBJECT_ID":"1998-007C","EPOCH":"2026-03-09T14:44:15.821664","MEAN_MOTION":14.35529153,"ECCENTRICITY":0.0038795,"INCLINATION":107.9614,"RA_OF_ASC_NODE":324.5497,"ARG_OF_PERICENTER":142.9338,"MEAN_ANOMALY":217.4493,"EPHEMERIS_TYPE":0,"CLASSIFICATION_TYPE":"U","NORAD_CAT_ID":25159,"ELEMENT_SET_NO":999,"REV_AT_EPOCH":46230,"BSTAR":0.0004125,"MEAN_MOTION_DOT":1.067e-5,"MEAN_MOTION_DDOT":0},{"OBJECT_NAME":"DMSP 5D-2 F14 DEB","OBJECT_ID":"1997-012P","EPOCH":"2026-03-09T15:13:40.692864","MEAN_MOTION":14.45677424,"ECCENTRICITY":0.0056433,"INCLINATION":98.8948,"RA_OF_ASC_NODE":121.7565,"ARG_OF_PERICENTER":134.2346,"MEAN_ANOMALY":226.3498,"EPHEMERIS_TYPE":0,"CLASSIFICATION_TYPE":"U","NORAD_CAT_ID":62943,"ELEMENT_SET_NO":999,"REV_AT_EPOCH":49463,"BSTAR":0.018589,"MEAN_MOTION_DOT":0.00067701,"MEAN_MOTION_DDOT":0}]
